{"type":"FeatureCollection","features":[{"type":"Feature","properties":{"n":"Comunitat Valenciana"},"geometry":{"type":"MultiPolygon","coordinates":[[[[-0.7209,37.9204],[-0.7208,37.9205],[-0.7208,37.9204],[-0.7209,37.9204]]],[[[-0.6546,37.9874],[-0.6546,37.9873],[-0.6547,37.9874],[-0.6546,37.9874]]],[[[-0.6501,38.0294],[-0.6517,38.0289],[-0.6529,38.0244],[-0.6523,38.0094],[-0.647,38.0043],[-0.6479,37.9994],[-0.6526,37.9979],[-0.6549,37.9938],[-0.6534,37.9927],[-0.6557,37.9914],[-0.6542,37.9904],[-0.656,37.9866],[-0.6546,37.9854],[-0.6571,37.9845],[-0.6556,37.9832],[-0.6604,37.9834],[-0.6658,37.9761],[-0.6695,37.977],[-0.6781,37.9737],[-0.6801,37.9687],[-0.6871,37.9643],[-0.6818,37.9681],[-0.6851,37.9709],[-0.6835,37.9716],[-0.6845,37.9707],[-0.6809,37.9691],[-0.6801,37.971],[-0.6832,37.9718],[-0.6795,37.9728],[-0.6813,37.9751],[-0.6831,37.9749],[-0.6821,37.9739],[-0.6849,37.9737],[-0.6832,37.9751],[-0.6868,37.9754],[-0.6879,37.9745],[-0.6866,37.9749],[-0.6855,37.9735],[-0.6871,37.9722],[-0.6892,37.9737],[-0.688,37.9754],[-0.6934,37.9727],[-0.6931,37.9707],[-0.6915,37.9718],[-0.6898,37.9706],[-0.6923,37.9711],[-0.6901,37.9699],[-0.6879,37.9672],[-0.6885,37.9667],[-0.6936,37.9708],[-0.6968,37.9693],[-0.7036,37.9567],[-0.7048,37.9411],[-0.7102,37.9419],[-0.715,37.9392],[-0.72,37.9321],[-0.7222,37.9211],[-0.721,37.9214],[-0.7199,37.9111],[-0.7267,37.911],[-0.7254,37.9121],[-0.7278,37.9136],[-0.7324,37.9126],[-0.736,37.9089],[-0.7407,37.9092],[-0.7462,37.8995],[-0.7501,37.8988],[-0.7538,37.8721],[-0.7555,37.8715],[-0.7556,37.8676],[-0.7572,37.865],[-0.7583,37.8658],[-0.7565,37.8671],[-0.7584,37.8677],[-0.7621,37.8625],[-0.7624,37.8466],[-0.7761,37.8438],[-0.7881,37.847],[-0.8039,37.8593],[-0.8305,37.8644],[-0.8572,37.8852],[-0.9002,37.9231],[-0.9228,37.9463],[-0.9354,37.9694],[-0.9485,37.9854],[-0.9657,38.0127],[-0.9984,38.0517],[-1.0073,38.0551],[-1.0226,38.0757],[-1.0303,38.0971],[-1.0307,38.1157],[-1.0367,38.1377],[-1.0091,38.1667],[-0.9888,38.1994],[-0.9778,38.2383],[-0.9681,38.2558],[-0.968,38.2758],[-0.9713,38.2902],[-0.9846,38.3071],[-0.9893,38.3207],[-1.028,38.3384],[-1.0586,38.3455],[-1.0844,38.3462],[-1.0881,38.3678],[-1.088,38.4053],[-1.0852,38.429],[-1.0772,38.4314],[-1.0942,38.4379],[-1.082,38.4412],[-1.0594,38.4558],[-1.0345,38.4745],[-1.0137,38.4967],[-1.0261,38.5228],[-1.0159,38.5371],[-1.0092,38.5587],[-1.0015,38.5727],[-1.012,38.6062],[-1.0158,38.6352],[-1.0239,38.6401],[-1.0261,38.6556],[-1.0108,38.6566],[-1.0091,38.6583],[-0.9915,38.6551],[-0.9625,38.6569],[-0.9325,38.6775],[-0.9158,38.696],[-0.9275,38.7068],[-0.9277,38.7131],[-0.938,38.7259],[-0.9395,38.7317],[-0.9459,38.7367],[-0.9617,38.7745],[-0.9444,38.7777],[-0.9291,38.7837],[-0.9294,38.7871],[-0.934,38.7936],[-0.9331,38.8109],[-0.9274,38.8158],[-0.9245,38.8238],[-0.9306,38.8298],[-0.9352,38.8556],[-0.93,38.8634],[-0.932,38.868],[-0.9314,38.8795],[-0.9243,38.8916],[-0.9416,38.9001],[-0.9516,38.9114],[-0.9536,38.9192],[-0.957,38.9207],[-0.9594,38.9443],[-0.9744,38.9422],[-1.0005,38.9496],[-1.0071,38.9458],[-1.0127,38.9394],[-1.0369,38.9342],[-1.043,38.9366],[-1.1051,38.9287],[-1.1271,38.9296],[-1.1386,38.9275],[-1.1472,38.9291],[-1.1527,38.9392],[-1.1545,38.9397],[-1.1609,38.9548],[-1.1933,38.9882],[-1.2018,38.993],[-1.2086,39.0051],[-1.2265,39.0247],[-1.2639,39.0451],[-1.2668,39.051],[-1.2652,39.0525],[-1.2638,39.0683],[-1.2657,39.0755],[-1.2558,39.084],[-1.2557,39.1062],[-1.2405,39.1137],[-1.2308,39.1374],[-1.227,39.1517],[-1.2105,39.1622],[-1.1971,39.1767],[-1.1945,39.1804],[-1.1894,39.2008],[-1.1808,39.2118],[-1.1764,39.2302],[-1.1748,39.2793],[-1.1619,39.3056],[-1.1646,39.3101],[-1.1696,39.3133],[-1.1925,39.3165],[-1.1949,39.3141],[-1.199,39.3149],[-1.2076,39.3266],[-1.2186,39.3167],[-1.2234,39.316],[-1.2281,39.3194],[-1.2382,39.3224],[-1.2443,39.3215],[-1.2472,39.3287],[-1.2508,39.3227],[-1.2553,39.3272],[-1.2626,39.3298],[-1.2689,39.3286],[-1.275,39.3338],[-1.2782,39.3328],[-1.282,39.3282],[-1.2915,39.3342],[-1.2976,39.3303],[-1.3016,39.3329],[-1.2988,39.3369],[-1.3076,39.3392],[-1.3121,39.3429],[-1.3187,39.3422],[-1.3211,39.3383],[-1.3282,39.3412],[-1.3335,39.3405],[-1.3349,39.3388],[-1.3302,39.3362],[-1.3363,39.3338],[-1.3428,39.3402],[-1.3514,39.3396],[-1.3541,39.341],[-1.3572,39.3475],[-1.362,39.3495],[-1.3659,39.3551],[-1.3739,39.3557],[-1.3843,39.3537],[-1.3852,39.3556],[-1.3819,39.3594],[-1.3842,39.3666],[-1.3938,39.3672],[-1.3989,39.364],[-1.4077,39.3663],[-1.4079,39.3697],[-1.3997,39.3691],[-1.3958,39.3746],[-1.4001,39.377],[-1.4061,39.3719],[-1.4084,39.3722],[-1.41,39.3737],[-1.4095,39.3773],[-1.413,39.3805],[-1.4214,39.3819],[-1.425,39.3806],[-1.4216,39.3681],[-1.4245,39.3639],[-1.4283,39.3629],[-1.431,39.3648],[-1.4279,39.3708],[-1.428,39.3752],[-1.4322,39.3774],[-1.4335,39.3762],[-1.4317,39.3717],[-1.4362,39.3732],[-1.4395,39.3716],[-1.4438,39.3621],[-1.4542,39.3611],[-1.4549,39.3636],[-1.4483,39.3666],[-1.4517,39.373],[-1.4483,39.3785],[-1.4631,39.3794],[-1.4675,39.3826],[-1.4627,39.3871],[-1.4556,39.3829],[-1.4525,39.3836],[-1.4577,39.3885],[-1.453,39.3894],[-1.4539,39.3931],[-1.4517,39.3977],[-1.454,39.4003],[-1.4619,39.4002],[-1.4672,39.3903],[-1.4735,39.3914],[-1.4767,39.3936],[-1.4752,39.3982],[-1.4662,39.4015],[-1.47,39.4078],[-1.4757,39.4086],[-1.4834,39.4009],[-1.4873,39.4004],[-1.4894,39.4038],[-1.4871,39.4121],[-1.4886,39.4171],[-1.4823,39.4188],[-1.4834,39.4226],[-1.4907,39.4217],[-1.4966,39.4153],[-1.4988,39.4151],[-1.5055,39.4187],[-1.5016,39.4252],[-1.4967,39.427],[-1.4969,39.4291],[-1.5063,39.4285],[-1.5075,39.4319],[-1.5116,39.4349],[-1.5138,39.4328],[-1.5131,39.4283],[-1.5215,39.4324],[-1.5208,39.4353],[-1.5154,39.4387],[-1.522,39.4403],[-1.5245,39.4431],[-1.5182,39.448],[-1.5205,39.4501],[-1.5267,39.4506],[-1.5287,39.4552],[-1.5245,39.4578],[-1.5186,39.4555],[-1.5131,39.458],[-1.5133,39.4709],[-1.5094,39.4768],[-1.504,39.4774],[-1.5028,39.4793],[-1.5117,39.482],[-1.5116,39.4847],[-1.5048,39.4875],[-1.5109,39.4898],[-1.5124,39.4959],[-1.5036,39.4912],[-1.5005,39.4949],[-1.5015,39.497],[-1.4989,39.502],[-1.5049,39.5035],[-1.5071,39.5079],[-1.5063,39.5129],[-1.5012,39.5152],[-1.5069,39.521],[-1.5047,39.5225],[-1.5037,39.5281],[-1.5058,39.5322],[-1.5009,39.5344],[-1.506,39.5401],[-1.5026,39.544],[-1.5026,39.5466],[-1.5049,39.5482],[-1.5111,39.5456],[-1.5211,39.55],[-1.5178,39.5519],[-1.5031,39.5521],[-1.5036,39.5559],[-1.5009,39.558],[-1.5044,39.5639],[-1.4835,39.5692],[-1.4768,39.5691],[-1.4621,39.5766],[-1.453,39.5915],[-1.4457,39.6112],[-1.4365,39.6288],[-1.4179,39.6549],[-1.3685,39.6896],[-1.3427,39.6816],[-1.3258,39.6731],[-1.3128,39.6705],[-1.292,39.6725],[-1.2796,39.6779],[-1.2679,39.6911],[-1.262,39.6989],[-1.2714,39.7135],[-1.271,39.7312],[-1.2743,39.7337],[-1.2754,39.7386],[-1.2492,39.7725],[-1.2341,39.7828],[-1.2212,39.8032],[-1.215,39.8088],[-1.2169,39.8144],[-1.2117,39.8203],[-1.2109,39.8382],[-1.2,39.8587],[-1.2007,39.8708],[-1.1979,39.8729],[-1.2002,39.8734],[-1.2003,39.891],[-1.1982,39.9092],[-1.1958,39.9141],[-1.1986,39.9162],[-1.1966,39.9177],[-1.1996,39.9195],[-1.2006,39.9235],[-1.2091,39.9283],[-1.2068,39.9324],[-1.21,39.934],[-1.2073,39.9373],[-1.2083,39.9439],[-1.2041,39.9494],[-1.153,39.9641],[-1.1425,39.9719],[-1.131,39.9707],[-1.1284,39.9629],[-1.1217,39.9609],[-1.1238,39.966],[-1.1147,39.9728],[-1.1127,39.9731],[-1.1098,39.969],[-1.1037,39.9749],[-1.0921,39.9678],[-1.0846,39.9719],[-1.0869,39.9732],[-1.0859,39.9763],[-1.0728,39.9795],[-1.0576,39.9805],[-1.0257,39.9746],[-1.0025,39.9818],[-0.9991,39.9801],[-0.9894,39.9818],[-0.9779,39.9761],[-0.9684,39.9745],[-0.9532,39.9673],[-0.9492,39.9673],[-0.9445,39.9628],[-0.9348,39.9599],[-0.9319,39.9561],[-0.9249,39.9591],[-0.9205,39.9644],[-0.916,39.9587],[-0.9172,39.9549],[-0.906,39.944],[-0.9027,39.9318],[-0.9035,39.9262],[-0.9076,39.928],[-0.9138,39.918],[-0.9076,39.9007],[-0.9096,39.8986],[-0.903,39.8971],[-0.9002,39.8918],[-0.9081,39.886],[-0.9086,39.8805],[-0.9126,39.8724],[-0.9078,39.8657],[-0.8886,39.8521],[-0.8793,39.8523],[-0.874,39.8483],[-0.8636,39.8474],[-0.858,39.8505],[-0.8565,39.8555],[-0.8487,39.8572],[-0.8388,39.8625],[-0.8287,39.8711],[-0.815,39.8735],[-0.7977,39.8811],[-0.7977,39.8834],[-0.8019,39.8851],[-0.805,39.8924],[-0.83,39.9068],[-0.8329,39.911],[-0.8332,39.9174],[-0.8404,39.925],[-0.8364,39.9284],[-0.8369,39.9341],[-0.8398,39.9421],[-0.8463,39.9477],[-0.8442,39.954],[-0.8392,39.9555],[-0.8357,39.96],[-0.8386,39.9667],[-0.8415,39.969],[-0.8381,39.9723],[-0.8378,39.9768],[-0.8348,39.9793],[-0.8243,39.9823],[-0.8163,39.9824],[-0.8032,39.9906],[-0.7896,39.9899],[-0.7776,39.9984],[-0.7746,40.0042],[-0.7673,40.01],[-0.762,40.0414],[-0.7537,40.0466],[-0.7477,40.0378],[-0.7305,40.0428],[-0.7187,40.0392],[-0.715,40.0426],[-0.7033,40.0465],[-0.6814,40.0451],[-0.6642,40.0512],[-0.6463,40.0671],[-0.6383,40.0691],[-0.6364,40.0672],[-0.6354,40.0722],[-0.6317,40.0701],[-0.6313,40.0734],[-0.6273,40.0757],[-0.6231,40.0743],[-0.6234,40.069],[-0.619,40.0679],[-0.6135,40.0696],[-0.6285,40.1026],[-0.6074,40.128],[-0.6009,40.1275],[-0.5981,40.129],[-0.5968,40.1323],[-0.5912,40.1337],[-0.5866,40.1314],[-0.5815,40.137],[-0.5786,40.1373],[-0.5796,40.1473],[-0.5747,40.1487],[-0.5755,40.1517],[-0.5705,40.1554],[-0.5693,40.1592],[-0.574,40.1726],[-0.5713,40.1759],[-0.5705,40.1803],[-0.5723,40.1812],[-0.5628,40.1889],[-0.5575,40.2008],[-0.5587,40.2098],[-0.5442,40.2517],[-0.5259,40.2373],[-0.5106,40.2318],[-0.5016,40.2332],[-0.4945,40.2287],[-0.4887,40.2333],[-0.4773,40.2353],[-0.47,40.2401],[-0.4638,40.2339],[-0.4518,40.2353],[-0.4281,40.2438],[-0.3837,40.2642],[-0.3847,40.2733],[-0.3828,40.2779],[-0.3896,40.2871],[-0.4001,40.294],[-0.4003,40.2957],[-0.3936,40.2978],[-0.3956,40.299],[-0.3947,40.3005],[-0.3924,40.2986],[-0.3897,40.2999],[-0.3912,40.3027],[-0.3887,40.307],[-0.3845,40.3055],[-0.3792,40.3101],[-0.3766,40.305],[-0.3728,40.3087],[-0.3726,40.304],[-0.3699,40.3045],[-0.3699,40.3066],[-0.3661,40.3052],[-0.3699,40.3098],[-0.3689,40.3118],[-0.3651,40.3133],[-0.3631,40.3167],[-0.3593,40.3132],[-0.3548,40.3147],[-0.3528,40.3134],[-0.3522,40.3175],[-0.3536,40.3182],[-0.3485,40.3207],[-0.3499,40.3277],[-0.3477,40.3281],[-0.3464,40.325],[-0.3431,40.3254],[-0.3438,40.327],[-0.3411,40.3289],[-0.3426,40.3343],[-0.3402,40.3359],[-0.3407,40.3391],[-0.3325,40.3409],[-0.3319,40.3444],[-0.324,40.3472],[-0.3189,40.3543],[-0.313,40.3584],[-0.3083,40.3569],[-0.3053,40.3623],[-0.2977,40.3611],[-0.295,40.3647],[-0.289,40.3678],[-0.2883,40.3643],[-0.2848,40.3657],[-0.2823,40.3645],[-0.281,40.3653],[-0.2833,40.3684],[-0.2801,40.3694],[-0.2817,40.3733],[-0.2794,40.375],[-0.283,40.378],[-0.2833,40.383],[-0.2857,40.3865],[-0.3013,40.3974],[-0.3072,40.4092],[-0.3147,40.4158],[-0.3328,40.4255],[-0.3412,40.4382],[-0.347,40.4433],[-0.3426,40.4426],[-0.3419,40.447],[-0.3387,40.4491],[-0.3389,40.4529],[-0.3339,40.4577],[-0.3237,40.4592],[-0.309,40.4655],[-0.2938,40.4654],[-0.295,40.4699],[-0.2873,40.4722],[-0.2855,40.4698],[-0.2823,40.4733],[-0.279,40.4724],[-0.2775,40.4755],[-0.2728,40.4733],[-0.2715,40.4785],[-0.276,40.4828],[-0.2801,40.4836],[-0.2801,40.4885],[-0.2751,40.4945],[-0.2812,40.505],[-0.2879,40.5096],[-0.2984,40.5056],[-0.2998,40.5133],[-0.3022,40.5149],[-0.3013,40.5225],[-0.2903,40.5441],[-0.2926,40.5473],[-0.2903,40.553],[-0.2936,40.5538],[-0.2921,40.5566],[-0.2962,40.5608],[-0.295,40.5704],[-0.2991,40.5732],[-0.2999,40.5773],[-0.2943,40.584],[-0.2953,40.5864],[-0.2935,40.5919],[-0.2954,40.5952],[-0.2933,40.5964],[-0.295,40.6001],[-0.2923,40.6047],[-0.2934,40.6114],[-0.2991,40.6129],[-0.3116,40.6115],[-0.3224,40.6028],[-0.3348,40.6075],[-0.3433,40.6065],[-0.344,40.6112],[-0.3603,40.6155],[-0.3705,40.6136],[-0.3776,40.6189],[-0.3797,40.6235],[-0.3764,40.6364],[-0.3712,40.6432],[-0.3727,40.6475],[-0.3708,40.6508],[-0.3794,40.657],[-0.3815,40.6616],[-0.378,40.6675],[-0.372,40.6672],[-0.3703,40.669],[-0.373,40.6702],[-0.3696,40.6701],[-0.3705,40.6723],[-0.3562,40.6777],[-0.3288,40.6803],[-0.3221,40.6777],[-0.3204,40.6684],[-0.3169,40.6636],[-0.307,40.6595],[-0.3065,40.6638],[-0.2991,40.6676],[-0.2936,40.674],[-0.2889,40.6723],[-0.279,40.6801],[-0.2631,40.6842],[-0.2504,40.6908],[-0.236,40.6911],[-0.2375,40.6979],[-0.2336,40.7086],[-0.2364,40.7097],[-0.2391,40.7193],[-0.2372,40.7237],[-0.2313,40.7291],[-0.2317,40.7328],[-0.2292,40.7357],[-0.2305,40.7385],[-0.2267,40.7441],[-0.227,40.748],[-0.224,40.7542],[-0.2128,40.7583],[-0.2105,40.7674],[-0.2022,40.775],[-0.2008,40.7772],[-0.2017,40.7795],[-0.1941,40.7822],[-0.1972,40.7845],[-0.1668,40.7857],[-0.165,40.7886],[-0.1445,40.7854],[-0.1472,40.7751],[-0.1438,40.7687],[-0.138,40.7659],[-0.1331,40.758],[-0.1268,40.7533],[-0.1129,40.7483],[-0.1075,40.7434],[-0.096,40.7418],[-0.0647,40.7274],[-0.0495,40.7275],[-0.0314,40.7224],[-0.0226,40.7302],[-0.0179,40.731],[0.0162,40.728],[0.0181,40.7259],[0.016,40.7231],[0.0185,40.7198],[0.0286,40.7142],[0.028,40.7102],[0.0245,40.707],[0.0242,40.7023],[0.027,40.7],[0.0258,40.6958],[0.0422,40.691],[0.0725,40.714],[0.115,40.7277],[0.1238,40.7208],[0.1446,40.7183],[0.1646,40.7238],[0.1644,40.7279],[0.1682,40.7294],[0.1703,40.7327],[0.1817,40.7281],[0.191,40.7311],[0.1973,40.7241],[0.2059,40.7265],[0.2161,40.7323],[0.2264,40.7331],[0.2246,40.7256],[0.2274,40.7149],[0.235,40.7059],[0.2361,40.7016],[0.242,40.7002],[0.2515,40.7049],[0.262,40.706],[0.266,40.7033],[0.2704,40.703],[0.2767,40.6941],[0.292,40.6881],[0.2924,40.6848],[0.2856,40.6786],[0.2831,40.6728],[0.275,40.67],[0.2677,40.6581],[0.2694,40.648],[0.2657,40.6447],[0.2706,40.6379],[0.2761,40.6366],[0.2791,40.6298],[0.2921,40.6231],[0.2984,40.6258],[0.3005,40.6226],[0.3154,40.614],[0.3192,40.6147],[0.3368,40.6088],[0.3717,40.605],[0.3764,40.6067],[0.3886,40.6068],[0.3947,40.6031],[0.4019,40.6028],[0.4068,40.5978],[0.4049,40.5951],[0.4212,40.585],[0.432,40.5793],[0.4432,40.5787],[0.4373,40.5731],[0.4388,40.5709],[0.4336,40.5658],[0.4369,40.5577],[0.4361,40.5497],[0.4387,40.5464],[0.446,40.5451],[0.4481,40.5417],[0.4547,40.541],[0.4778,40.532],[0.5146,40.523],[0.513,40.516],[0.5058,40.5086],[0.5055,40.5046],[0.4988,40.498],[0.4944,40.4898],[0.4887,40.4853],[0.4851,40.4795],[0.4856,40.4767],[0.4832,40.475],[0.4801,40.4769],[0.4833,40.4747],[0.4839,40.4737],[0.4818,40.4734],[0.4769,40.4673],[0.4787,40.4621],[0.4777,40.4586],[0.4759,40.4573],[0.4782,40.4621],[0.4752,40.4665],[0.4731,40.4647],[0.4747,40.4636],[0.4721,40.4633],[0.476,40.4619],[0.4756,40.4605],[0.471,40.4634],[0.465,40.4587],[0.4596,40.4492],[0.4482,40.4391],[0.4411,40.4289],[0.436,40.4168],[0.436,40.411],[0.4352,40.4093],[0.4355,40.4162],[0.4344,40.4164],[0.4333,40.4148],[0.4346,40.4147],[0.4314,40.4135],[0.4341,40.4127],[0.4334,40.4112],[0.43,40.4116],[0.4301,40.4096],[0.4254,40.4079],[0.4181,40.4008],[0.4037,40.3643],[0.4041,40.3605],[0.408,40.3601],[0.4084,40.3574],[0.4021,40.3533],[0.4064,40.3562],[0.3991,40.3575],[0.4,40.3555],[0.3923,40.352],[0.3863,40.3401],[0.3663,40.3261],[0.3627,40.3198],[0.3539,40.3123],[0.3504,40.2997],[0.3468,40.2961],[0.3353,40.2919],[0.3337,40.2846],[0.3299,40.2796],[0.3178,40.2709],[0.3106,40.2686],[0.3042,40.2597],[0.296,40.2585],[0.2873,40.2528],[0.2896,40.2505],[0.2881,40.248],[0.2892,40.2505],[0.2878,40.2512],[0.288,40.2488],[0.2864,40.2487],[0.2876,40.2485],[0.2782,40.2445],[0.273,40.2331],[0.2717,40.2248],[0.2636,40.2084],[0.2547,40.2032],[0.2289,40.1971],[0.2279,40.1962],[0.2287,40.1955],[0.2278,40.1947],[0.2253,40.1948],[0.2256,40.1933],[0.2252,40.1928],[0.2223,40.1927],[0.2227,40.1918],[0.222,40.1906],[0.2182,40.1906],[0.2099,40.1841],[0.2016,40.1818],[0.1936,40.1741],[0.1825,40.1609],[0.158,40.1188],[0.1473,40.0937],[0.1476,40.0829],[0.137,40.0809],[0.1346,40.0779],[0.1354,40.0773],[0.1349,40.0738],[0.1352,40.0773],[0.1335,40.0774],[0.1344,40.0756],[0.133,40.0754],[0.1344,40.0753],[0.133,40.0754],[0.1341,40.0747],[0.1321,40.0717],[0.1208,40.0624],[0.1143,40.0615],[0.1062,40.0566],[0.0976,40.0553],[0.0968,40.0566],[0.0937,40.0554],[0.0845,40.0567],[0.0829,40.0556],[0.084,40.0545],[0.0815,40.055],[0.0816,40.0532],[0.0776,40.0525],[0.0784,40.0513],[0.0755,40.0513],[0.0762,40.0495],[0.0722,40.0487],[0.0727,40.0467],[0.0657,40.0458],[0.062,40.0433],[0.0623,40.0412],[0.06,40.0416],[0.0594,40.0397],[0.0497,40.0354],[0.0453,40.0284],[0.0453,40.0278],[0.0462,40.0276],[0.0465,40.0266],[0.0434,40.024],[0.0433,40.0231],[0.0443,40.0228],[0.0446,40.0218],[0.0428,40.0218],[0.0411,40.0185],[0.0423,40.0165],[0.0375,40.0138],[0.0312,40.0025],[0.0331,40.0017],[0.0314,40.0023],[0.0243,39.9788],[0.0325,39.9688],[0.0288,39.9557],[0.0294,39.9598],[0.0258,39.9603],[0.0285,39.9672],[0.024,39.9718],[0.0218,39.9693],[0.0201,39.9698],[0.0207,39.9732],[0.0181,39.9743],[0.0163,39.9721],[0.0172,39.9744],[0.0145,39.9707],[0.0167,39.9716],[0.0155,39.97],[0.0196,39.9677],[0.014,39.9699],[0.012,39.9685],[0.0177,39.9662],[0.0223,39.9675],[0.017,39.9658],[0.0132,39.9674],[0.0104,39.9598],[0.0148,39.9588],[0.0133,39.9525],[0.0059,39.9538],[0.0057,39.9574],[0.0049,39.9545],[0.0059,39.9535],[0.0199,39.9503],[0.0241,39.9565],[0.02,39.9499],[0.0157,39.9509],[0.0142,39.9479],[0.0047,39.95],[0.0053,39.9533],[0.0039,39.9544],[0.0032,39.9496],[0.0077,39.9484],[0.0028,39.9491],[0.002,39.9432],[0.0042,39.942],[0.0024,39.9414],[0.0026,39.9371],[0.0004,39.9344],[0.0022,39.9324],[-0.0003,39.9318],[-0.0001,39.9272],[-0.0045,39.9191],[-0.0038,39.9148],[-0.0069,39.9144],[-0.013,39.9067],[-0.033,39.8952],[-0.0549,39.8755],[-0.0561,39.8736],[-0.0544,39.8723],[-0.0561,39.8736],[-0.0587,39.8722],[-0.0603,39.8693],[-0.0578,39.8682],[-0.0606,39.8693],[-0.0627,39.8676],[-0.0653,39.8618],[-0.0625,39.8608],[-0.0662,39.8611],[-0.0662,39.8585],[-0.0671,39.8574],[-0.0668,39.8613],[-0.07,39.861],[-0.0685,39.8625],[-0.0707,39.8645],[-0.0753,39.862],[-0.0736,39.861],[-0.0716,39.8625],[-0.073,39.8606],[-0.069,39.8585],[-0.0772,39.8628],[-0.086,39.8568],[-0.0976,39.8425],[-0.1028,39.8323],[-0.1064,39.8305],[-0.1108,39.8235],[-0.1212,39.8143],[-0.132,39.7944],[-0.1338,39.7942],[-0.1364,39.7892],[-0.1407,39.7879],[-0.1563,39.7629],[-0.1591,39.7627],[-0.1609,39.7589],[-0.1681,39.7528],[-0.1721,39.7454],[-0.1784,39.7399],[-0.1896,39.7199],[-0.199,39.6942],[-0.2019,39.6762],[-0.2009,39.6754],[-0.2008,39.6722],[-0.2011,39.675],[-0.203,39.6751],[-0.2017,39.6728],[-0.2075,39.6662],[-0.2062,39.6652],[-0.2061,39.6648],[-0.2086,39.6619],[-0.2093,39.654],[-0.206,39.6524],[-0.206,39.6488],[-0.2088,39.6467],[-0.2082,39.6438],[-0.2053,39.6429],[-0.2053,39.6305],[-0.2056,39.6425],[-0.2086,39.6434],[-0.211,39.6522],[-0.2094,39.6524],[-0.2158,39.6552],[-0.2194,39.6503],[-0.2136,39.6476],[-0.214,39.6469],[-0.2123,39.6428],[-0.2206,39.6455],[-0.2234,39.6436],[-0.2242,39.64],[-0.2145,39.6351],[-0.2111,39.6379],[-0.2119,39.6333],[-0.2156,39.6292],[-0.2278,39.6348],[-0.2305,39.6388],[-0.2383,39.6358],[-0.2538,39.6218],[-0.2593,39.6144],[-0.2581,39.6134],[-0.2611,39.6128],[-0.2597,39.6107],[-0.2628,39.6104],[-0.2634,39.6088],[-0.2614,39.608],[-0.2634,39.6087],[-0.2649,39.6062],[-0.2629,39.6054],[-0.2659,39.605],[-0.2664,39.6029],[-0.2644,39.6025],[-0.2664,39.6028],[-0.2673,39.5996],[-0.2652,39.5992],[-0.2673,39.5993],[-0.2682,39.5961],[-0.2665,39.5954],[-0.2689,39.5949],[-0.2668,39.5939],[-0.2699,39.5932],[-0.2718,39.5863],[-0.2707,39.5852],[-0.2725,39.5837],[-0.2705,39.5823],[-0.2733,39.5808],[-0.2711,39.5795],[-0.2739,39.5792],[-0.275,39.5758],[-0.2731,39.5751],[-0.2748,39.5754],[-0.276,39.5732],[-0.2748,39.5726],[-0.2772,39.5718],[-0.2761,39.5704],[-0.2787,39.5687],[-0.2773,39.568],[-0.2803,39.567],[-0.279,39.5652],[-0.2819,39.5644],[-0.2809,39.5627],[-0.2833,39.5581],[-0.2816,39.5629],[-0.2828,39.5636],[-0.2858,39.5595],[-0.2843,39.5586],[-0.2873,39.5572],[-0.2863,39.5562],[-0.2882,39.5567],[-0.2898,39.555],[-0.2884,39.5541],[-0.2902,39.5546],[-0.292,39.5529],[-0.2908,39.552],[-0.2937,39.5515],[-0.2916,39.5491],[-0.2946,39.5504],[-0.2976,39.5482],[-0.3113,39.5305],[-0.3144,39.5241],[-0.313,39.5234],[-0.3128,39.5227],[-0.3146,39.5232],[-0.3164,39.5205],[-0.3165,39.5199],[-0.3151,39.5197],[-0.3148,39.5191],[-0.3166,39.5198],[-0.3185,39.5174],[-0.3197,39.5116],[-0.3178,39.5107],[-0.3176,39.51],[-0.3216,39.5123],[-0.3229,39.5105],[-0.3223,39.5088],[-0.3211,39.5106],[-0.3209,39.5107],[-0.3183,39.5102],[-0.3206,39.5092],[-0.3198,39.507],[-0.322,39.5052],[-0.3204,39.5046],[-0.3227,39.5021],[-0.3222,39.4717],[-0.3193,39.463],[-0.3123,39.4626],[-0.3105,39.4611],[-0.3165,39.4625],[-0.3167,39.4613],[-0.3178,39.4621],[-0.3251,39.4602],[-0.3252,39.4615],[-0.3294,39.4616],[-0.3313,39.4602],[-0.3282,39.4603],[-0.3286,39.4589],[-0.329,39.4596],[-0.3312,39.46],[-0.3314,39.4598],[-0.3275,39.4565],[-0.3225,39.4606],[-0.3139,39.4603],[-0.3171,39.4602],[-0.315,39.4572],[-0.3127,39.4582],[-0.3135,39.4591],[-0.3116,39.4586],[-0.3126,39.46],[-0.3085,39.4599],[-0.3078,39.4628],[-0.2858,39.455],[-0.2915,39.4441],[-0.2863,39.455],[-0.3042,39.4603],[-0.3094,39.4575],[-0.31,39.4556],[-0.3024,39.453],[-0.31,39.4554],[-0.3114,39.4533],[-0.3096,39.4509],[-0.302,39.4493],[-0.302,39.4448],[-0.2989,39.4448],[-0.2952,39.4511],[-0.2987,39.4445],[-0.3021,39.4445],[-0.3022,39.4343],[-0.3029,39.4336],[-0.3027,39.4353],[-0.3059,39.4356],[-0.305,39.4445],[-0.3088,39.4451],[-0.3106,39.442],[-0.3127,39.4419],[-0.3082,39.4503],[-0.3122,39.4501],[-0.3145,39.4462],[-0.3236,39.4583],[-0.3265,39.4556],[-0.3229,39.4538],[-0.3263,39.4521],[-0.3206,39.4499],[-0.3214,39.4483],[-0.3256,39.4496],[-0.3251,39.4463],[-0.3163,39.4429],[-0.3173,39.441],[-0.3169,39.443],[-0.3192,39.4424],[-0.3182,39.4401],[-0.3197,39.4374],[-0.328,39.4401],[-0.3303,39.4352],[-0.3149,39.4302],[-0.3125,39.4334],[-0.3142,39.4347],[-0.3135,39.4354],[-0.3091,39.43],[-0.3127,39.4233],[-0.3175,39.4206],[-0.3228,39.4228],[-0.3176,39.4212],[-0.3157,39.423],[-0.3179,39.4222],[-0.3173,39.4235],[-0.3186,39.4225],[-0.3182,39.4238],[-0.3197,39.4229],[-0.3194,39.4242],[-0.3297,39.4274],[-0.3299,39.4304],[-0.33,39.4307],[-0.3325,39.4318],[-0.3333,39.4317],[-0.3305,39.43],[-0.3331,39.4293],[-0.3328,39.4283],[-0.3303,39.4283],[-0.3304,39.4268],[-0.3305,39.4283],[-0.3328,39.4269],[-0.3267,39.4259],[-0.3274,39.4247],[-0.3235,39.4238],[-0.3247,39.4234],[-0.3328,39.4267],[-0.3313,39.4257],[-0.333,39.4236],[-0.3299,39.4224],[-0.3319,39.4223],[-0.3337,39.4174],[-0.3318,39.4166],[-0.3328,39.4137],[-0.3307,39.4135],[-0.3325,39.4122],[-0.3304,39.4034],[-0.3126,39.3509],[-0.2922,39.3084],[-0.2752,39.2792],[-0.2732,39.2791],[-0.2726,39.2787],[-0.2787,39.2792],[-0.2787,39.2785],[-0.2729,39.2782],[-0.272,39.2737],[-0.255,39.243],[-0.2225,39.1884],[-0.2163,39.1863],[-0.22,39.1801],[-0.2266,39.1812],[-0.2291,39.1782],[-0.2336,39.1799],[-0.2384,39.1755],[-0.2404,39.1686],[-0.2393,39.1521],[-0.2335,39.1514],[-0.2388,39.1518],[-0.236,39.1506],[-0.2391,39.1497],[-0.2388,39.1433],[-0.2358,39.141],[-0.2371,39.1394],[-0.2338,39.1334],[-0.2348,39.1322],[-0.2322,39.1273],[-0.2306,39.1274],[-0.2317,39.1261],[-0.2298,39.1249],[-0.2309,39.124],[-0.2272,39.115],[-0.2091,39.0765],[-0.1983,39.0583],[-0.1997,39.0582],[-0.1563,38.9984],[-0.1443,38.9953],[-0.1563,38.9981],[-0.1553,38.9976],[-0.1563,38.9972],[-0.1559,38.9967],[-0.153,38.9969],[-0.1611,38.9924],[-0.1518,38.9956],[-0.1489,38.993],[-0.1467,38.9944],[-0.1521,38.9907],[-0.1456,38.9817],[-0.1068,38.942],[-0.096,38.9331],[-0.0935,38.934],[-0.0915,38.9334],[-0.0934,38.9338],[-0.0956,38.9326],[-0.096,38.9303],[-0.0943,38.931],[-0.0956,38.932],[-0.0943,38.931],[-0.0951,38.9321],[-0.0938,38.933],[-0.094,38.9328],[-0.0934,38.9332],[-0.0926,38.9331],[-0.0936,38.9317],[-0.0912,38.9286],[-0.0694,38.9102],[-0.018,38.8733],[-0.0091,38.8697],[-0.0063,38.8712],[0.001,38.8676],[0.0026,38.869],[0.0082,38.8666],[0.0094,38.8683],[0.0087,38.8667],[0.0158,38.8638],[0.0217,38.8655],[0.0354,38.8601],[0.0459,38.8606],[0.0476,38.8636],[0.0548,38.8629],[0.0941,38.8539],[0.1077,38.8474],[0.1136,38.8501],[0.1118,38.8474],[0.116,38.8455],[0.1201,38.845],[0.1257,38.8487],[0.1206,38.8447],[0.1174,38.8451],[0.1187,38.8432],[0.1172,38.8441],[0.1172,38.8424],[0.1111,38.847],[0.1093,38.8459],[0.113,38.844],[0.1117,38.843],[0.1152,38.8397],[0.116,38.8399],[0.1181,38.8393],[0.1165,38.8397],[0.116,38.8392],[0.1169,38.838],[0.1204,38.8368],[0.121,38.8396],[0.119,38.8393],[0.1208,38.8401],[0.1188,38.8397],[0.1206,38.8406],[0.1187,38.8403],[0.1204,38.8413],[0.1187,38.841],[0.121,38.8421],[0.1207,38.8432],[0.1227,38.8444],[0.121,38.843],[0.1221,38.8386],[0.1206,38.836],[0.1246,38.8334],[0.1303,38.8325],[0.1324,38.8354],[0.1327,38.834],[0.1473,38.8317],[0.1507,38.8279],[0.1544,38.8277],[0.1593,38.8237],[0.1597,38.8223],[0.1609,38.8205],[0.1702,38.8153],[0.1901,38.8088],[0.1907,38.8067],[0.1969,38.8044],[0.1989,38.8018],[0.1968,38.7998],[0.1956,38.8002],[0.1899,38.7997],[0.1872,38.7947],[0.1886,38.7987],[0.1873,38.7974],[0.1866,38.7986],[0.1868,38.7971],[0.185,38.7985],[0.1845,38.7965],[0.1861,38.7961],[0.1823,38.7945],[0.1838,38.7857],[0.1916,38.7746],[0.191,38.7752],[0.1871,38.7754],[0.1854,38.7775],[0.184,38.7774],[0.1862,38.775],[0.1909,38.775],[0.1915,38.7721],[0.1938,38.7728],[0.1978,38.7706],[0.2092,38.7607],[0.2161,38.7616],[0.2198,38.7601],[0.221,38.7632],[0.2247,38.7643],[0.2217,38.7585],[0.2225,38.7559],[0.226,38.7544],[0.224,38.7528],[0.224,38.749],[0.2258,38.7448],[0.2327,38.7456],[0.2315,38.7403],[0.2338,38.7399],[0.234,38.7369],[0.2323,38.7371],[0.2314,38.7367],[0.2322,38.7357],[0.2304,38.7339],[0.2312,38.7318],[0.2261,38.7328],[0.2183,38.7305],[0.2157,38.7278],[0.2134,38.7323],[0.2041,38.7323],[0.2002,38.7293],[0.1963,38.7292],[0.199,38.7252],[0.1886,38.7231],[0.1841,38.7195],[0.182,38.7206],[0.1802,38.7165],[0.1747,38.7124],[0.1673,38.7105],[0.1648,38.7056],[0.1647,38.704],[0.1581,38.6981],[0.1556,38.698],[0.155,38.6869],[0.1488,38.6794],[0.1471,38.6802],[0.1469,38.6872],[0.1387,38.6858],[0.1382,38.6871],[0.1367,38.6872],[0.1378,38.6868],[0.1366,38.6867],[0.1379,38.6865],[0.1377,38.6856],[0.135,38.6868],[0.1393,38.6849],[0.1307,38.687],[0.121,38.682],[0.1152,38.6737],[0.1117,38.675],[0.0984,38.6729],[0.0882,38.6648],[0.0885,38.6622],[0.0851,38.6587],[0.0803,38.6563],[0.0775,38.6523],[0.0786,38.6506],[0.0734,38.6447],[0.0729,38.6418],[0.0756,38.6407],[0.0759,38.6371],[0.0769,38.636],[0.0808,38.6347],[0.0838,38.6311],[0.0759,38.6328],[0.0732,38.6325],[0.0712,38.6357],[0.0673,38.6359],[0.0706,38.6363],[0.0708,38.6392],[0.0691,38.6392],[0.0692,38.637],[0.0672,38.6404],[0.0592,38.6415],[0.0581,38.6398],[0.0579,38.6414],[0.0516,38.6418],[0.0347,38.6361],[0.0351,38.6338],[0.0308,38.6315],[0.0313,38.6288],[0.0292,38.6283],[0.0306,38.626],[0.0107,38.6324],[0.0058,38.6302],[0.0059,38.6283],[0.0035,38.6308],[0.0002,38.6285],[-0.0048,38.6287],[-0.0004,38.6288],[-0.0003,38.63],[-0.006,38.6304],[-0.0157,38.6267],[-0.0183,38.6233],[-0.0181,38.6248],[-0.0318,38.616],[-0.0324,38.6126],[-0.0353,38.6114],[-0.0425,38.6017],[-0.0448,38.6021],[-0.0467,38.5996],[-0.0455,38.599],[-0.0538,38.5923],[-0.0524,38.589],[-0.0539,38.5857],[-0.0534,38.59],[-0.0541,38.5916],[-0.055,38.5917],[-0.0542,38.5903],[-0.0573,38.5885],[-0.0548,38.588],[-0.0585,38.5874],[-0.0617,38.5823],[-0.0642,38.5721],[-0.0557,38.5684],[-0.0541,38.5652],[-0.0505,38.566],[-0.0486,38.5638],[-0.0496,38.5623],[-0.0566,38.5577],[-0.0588,38.5519],[-0.0643,38.5507],[-0.0676,38.5443],[-0.0734,38.5414],[-0.0754,38.538],[-0.0863,38.5332],[-0.0889,38.5298],[-0.0943,38.5273],[-0.0944,38.5269],[-0.0951,38.5267],[-0.0959,38.5256],[-0.0965,38.5242],[-0.0975,38.5235],[-0.104,38.5279],[-0.1057,38.5268],[-0.1067,38.5289],[-0.109,38.5287],[-0.1077,38.5325],[-0.1111,38.5339],[-0.1251,38.5354],[-0.1315,38.5331],[-0.1344,38.534],[-0.1328,38.5356],[-0.1387,38.5368],[-0.1511,38.5352],[-0.16,38.5296],[-0.1618,38.527],[-0.1609,38.5246],[-0.1675,38.524],[-0.172,38.5163],[-0.1806,38.5168],[-0.1873,38.5142],[-0.1967,38.5153],[-0.2094,38.5114],[-0.2201,38.5054],[-0.2154,38.5087],[-0.2216,38.5067],[-0.222,38.508],[-0.2257,38.5074],[-0.231,38.5035],[-0.2305,38.5013],[-0.25,38.499],[-0.2679,38.4948],[-0.277,38.4903],[-0.2793,38.491],[-0.2823,38.4881],[-0.2878,38.4883],[-0.3122,38.4774],[-0.3173,38.4741],[-0.3183,38.471],[-0.318,38.473],[-0.3432,38.4558],[-0.3535,38.4524],[-0.3564,38.4489],[-0.3605,38.4493],[-0.3625,38.4462],[-0.364,38.4478],[-0.3646,38.4457],[-0.3749,38.4431],[-0.3775,38.4396],[-0.3764,38.4382],[-0.3801,38.4375],[-0.3826,38.4346],[-0.3801,38.4315],[-0.3829,38.4324],[-0.3827,38.43],[-0.3844,38.4285],[-0.385,38.4325],[-0.3867,38.431],[-0.3849,38.4295],[-0.3887,38.4278],[-0.389,38.4248],[-0.3865,38.4246],[-0.3893,38.4246],[-0.3887,38.4219],[-0.3905,38.4203],[-0.3875,38.419],[-0.3904,38.419],[-0.3936,38.4138],[-0.3999,38.4128],[-0.4045,38.4017],[-0.4081,38.3832],[-0.4095,38.3604],[-0.4088,38.3575],[-0.4029,38.3528],[-0.4118,38.352],[-0.4349,38.3554],[-0.4353,38.3604],[-0.445,38.3628],[-0.4752,38.3469],[-0.4784,38.3438],[-0.4776,38.337],[-0.4894,38.328],[-0.4786,38.3372],[-0.479,38.3398],[-0.4813,38.3386],[-0.4814,38.3407],[-0.4827,38.34],[-0.4828,38.3402],[-0.4816,38.341],[-0.483,38.3403],[-0.4831,38.3405],[-0.4818,38.3414],[-0.4833,38.3408],[-0.4821,38.3418],[-0.4836,38.3413],[-0.4811,38.3433],[-0.4807,38.3398],[-0.4804,38.3435],[-0.4809,38.3437],[-0.4853,38.3417],[-0.4873,38.3393],[-0.4849,38.3411],[-0.4836,38.339],[-0.4845,38.3402],[-0.4844,38.3387],[-0.4851,38.34],[-0.485,38.3386],[-0.4867,38.3389],[-0.4825,38.3379],[-0.4878,38.3361],[-0.4865,38.3347],[-0.4899,38.3322],[-0.4952,38.334],[-0.4919,38.3306],[-0.4936,38.3295],[-0.4943,38.319],[-0.4945,38.3209],[-0.4974,38.3211],[-0.4954,38.3212],[-0.4962,38.329],[-0.499,38.33],[-0.5015,38.326],[-0.5001,38.323],[-0.5034,38.3262],[-0.5025,38.3287],[-0.5041,38.3309],[-0.5058,38.3297],[-0.5038,38.3274],[-0.5089,38.3298],[-0.5066,38.3281],[-0.5097,38.3272],[-0.5129,38.3209],[-0.5169,38.31],[-0.5188,38.2981],[-0.5198,38.2975],[-0.519,38.2695],[-0.5148,38.2412],[-0.5074,38.2184],[-0.5081,38.2074],[-0.5136,38.1976],[-0.5238,38.191],[-0.5334,38.1877],[-0.5378,38.1882],[-0.5379,38.1869],[-0.539,38.1855],[-0.539,38.1882],[-0.5412,38.1876],[-0.5415,38.1893],[-0.5444,38.1893],[-0.5446,38.1873],[-0.5447,38.1892],[-0.5479,38.1891],[-0.548,38.1875],[-0.548,38.1892],[-0.5505,38.1893],[-0.5519,38.1873],[-0.5519,38.189],[-0.5541,38.1893],[-0.5606,38.1847],[-0.5632,38.1843],[-0.557,38.1898],[-0.5599,38.1905],[-0.5605,38.1903],[-0.5588,38.1887],[-0.5606,38.1881],[-0.5619,38.1882],[-0.5613,38.1909],[-0.5646,38.1906],[-0.5625,38.1908],[-0.5646,38.1906],[-0.5627,38.1905],[-0.5645,38.1903],[-0.5626,38.1902],[-0.5644,38.19],[-0.5626,38.1899],[-0.5643,38.1886],[-0.5625,38.1885],[-0.5627,38.1864],[-0.5669,38.1914],[-0.5949,38.188],[-0.6133,38.1746],[-0.6321,38.1472],[-0.6396,38.1263],[-0.6415,38.114],[-0.6389,38.1127],[-0.6424,38.1124],[-0.6506,38.1104],[-0.6422,38.1122],[-0.6404,38.1118],[-0.6468,38.1108],[-0.6442,38.1105],[-0.6466,38.1094],[-0.647,38.1079],[-0.6459,38.1091],[-0.6446,38.1076],[-0.6431,38.1106],[-0.6374,38.112],[-0.6427,38.1098],[-0.6454,38.0968],[-0.6512,38.0495],[-0.6519,38.0339],[-0.6501,38.0294]]],[[[-0.4768,38.1612],[-0.4764,38.1612],[-0.4768,38.1611],[-0.4768,38.1612]]],[[[-0.4772,38.163],[-0.4771,38.1629],[-0.4771,38.1629],[-0.4772,38.163]]],[[[-0.4823,38.165],[-0.4822,38.1649],[-0.4823,38.165],[-0.4823,38.165]]],[[[-0.4852,38.1649],[-0.4852,38.165],[-0.4852,38.165],[-0.4852,38.1649]]],[[[-0.4855,38.165],[-0.4855,38.1652],[-0.4854,38.1651],[-0.4855,38.165]]],[[[-0.4844,38.1658],[-0.4844,38.1658],[-0.4844,38.1658],[-0.4844,38.1658]]],[[[-0.4847,38.1659],[-0.4847,38.1658],[-0.4848,38.1658],[-0.4847,38.1659]]],[[[-0.4766,38.1661],[-0.4767,38.166],[-0.4767,38.1661],[-0.4766,38.1661]]],[[[-0.4768,38.1661],[-0.4768,38.1662],[-0.4767,38.1662],[-0.4768,38.1661]]],[[[-0.4772,38.1661],[-0.4771,38.1663],[-0.477,38.1662],[-0.4772,38.1661]]],[[[-0.4788,38.1666],[-0.4789,38.1666],[-0.4789,38.1666],[-0.4788,38.1666]]],[[[-0.4857,38.167],[-0.4865,38.1665],[-0.4872,38.1669],[-0.4857,38.167]]],[[[-0.4852,38.1668],[-0.4852,38.1667],[-0.4853,38.1668],[-0.4852,38.1668]]],[[[-0.4786,38.1668],[-0.4786,38.1668],[-0.4786,38.1668],[-0.4786,38.1668]]],[[[-0.4844,38.1669],[-0.4845,38.1669],[-0.4844,38.167],[-0.4844,38.1669]]],[[[-0.4854,38.167],[-0.4854,38.167],[-0.4854,38.1669],[-0.4854,38.167]]],[[[-0.485,38.167],[-0.4849,38.167],[-0.4849,38.167],[-0.485,38.167]]],[[[-0.4834,38.1671],[-0.4834,38.1671],[-0.4833,38.1671],[-0.4834,38.1671]]],[[[-0.4858,38.1671],[-0.4859,38.1671],[-0.4858,38.1671],[-0.4858,38.1671]]],[[[-0.4838,38.1671],[-0.4838,38.1672],[-0.4838,38.1672],[-0.4838,38.1671]]],[[[-0.4858,38.1672],[-0.4858,38.1672],[-0.4859,38.1672],[-0.4858,38.1672]]],[[[-0.4861,38.1672],[-0.4861,38.1673],[-0.4861,38.1672],[-0.4861,38.1672]]],[[[-0.4808,38.1673],[-0.4807,38.1673],[-0.4808,38.1673],[-0.4808,38.1673]]],[[[-0.5172,38.3071],[-0.5172,38.3072],[-0.5172,38.3072],[-0.5172,38.3071]]],[[[-0.5172,38.3083],[-0.5172,38.3083],[-0.5172,38.3083],[-0.5172,38.3083]]],[[[-0.5129,38.3203],[-0.5129,38.3204],[-0.5129,38.3203],[-0.5129,38.3203]]],[[[-1.1767,40.0093],[-1.1798,40.0064],[-1.1918,40.0015],[-1.1995,40.0034],[-1.2166,40.0016],[-1.2495,39.9951],[-1.2642,39.9985],[-1.2864,40.0082],[-1.3283,40.0134],[-1.3358,40.0167],[-1.3643,40.0122],[-1.3769,40.0165],[-1.3813,40.0272],[-1.3831,40.039],[-1.3937,40.0531],[-1.4003,40.0664],[-1.4131,40.0812],[-1.4142,40.0882],[-1.4203,40.0935],[-1.4076,40.1014],[-1.4102,40.1045],[-1.4293,40.1136],[-1.4428,40.118],[-1.4562,40.131],[-1.4572,40.1351],[-1.4489,40.1453],[-1.4319,40.1393],[-1.4224,40.1423],[-1.4117,40.1408],[-1.3936,40.1344],[-1.3777,40.1402],[-1.3637,40.1386],[-1.3645,40.1334],[-1.3623,40.1301],[-1.3546,40.1295],[-1.3361,40.1422],[-1.3197,40.1464],[-1.3166,40.1497],[-1.3195,40.1562],[-1.3173,40.1641],[-1.3226,40.1716],[-1.323,40.1849],[-1.315,40.2014],[-1.3014,40.206],[-1.2971,40.2095],[-1.2978,40.2115],[-1.2931,40.2069],[-1.2967,40.1992],[-1.287,40.1819],[-1.2843,40.1715],[-1.2767,40.1673],[-1.2765,40.1622],[-1.2524,40.1433],[-1.2457,40.1471],[-1.2443,40.146],[-1.2474,40.1404],[-1.246,40.1386],[-1.2494,40.1351],[-1.2457,40.1297],[-1.246,40.1271],[-1.2506,40.123],[-1.2442,40.1155],[-1.2368,40.113],[-1.2339,40.1148],[-1.2231,40.1157],[-1.2087,40.1102],[-1.1957,40.11],[-1.1661,40.1149],[-1.1498,40.1148],[-1.1441,40.1086],[-1.1355,40.1043],[-1.1335,40.0975],[-1.1226,40.0957],[-1.1179,40.0927],[-1.1106,40.0925],[-1.0781,40.0688],[-1.0795,40.067],[-1.0721,40.0605],[-1.0718,40.0511],[-1.0766,40.0478],[-1.0842,40.0362],[-1.0979,40.0327],[-1.1073,40.0263],[-1.1362,40.0151],[-1.1463,40.0167],[-1.1542,40.0124],[-1.1767,40.0093]]],[[[-0.4709,38.1606],[-0.4708,38.1607],[-0.4709,38.1605],[-0.4709,38.1606]]],[[[-0.4593,38.1608],[-0.4593,38.1607],[-0.4593,38.1607],[-0.4593,38.1608]]],[[[-0.4597,38.1609],[-0.4597,38.161],[-0.4597,38.161],[-0.4597,38.1609]]],[[[-0.46,38.1612],[-0.4599,38.1613],[-0.4599,38.1611],[-0.46,38.1612]]],[[[-0.4591,38.1606],[-0.4598,38.1616],[-0.4591,38.1615],[-0.4576,38.1619],[-0.4591,38.1606]]],[[[-0.4741,38.1611],[-0.4753,38.1614],[-0.4752,38.1617],[-0.4741,38.1611]]],[[[-0.4708,38.1617],[-0.4709,38.1616],[-0.4709,38.1617],[-0.4708,38.1617]]],[[[-0.4597,38.1616],[-0.4597,38.1617],[-0.4596,38.1617],[-0.4597,38.1616]]],[[[-0.4592,38.1617],[-0.4592,38.1617],[-0.4592,38.1617],[-0.4592,38.1617]]],[[[-0.4595,38.1617],[-0.4594,38.1617],[-0.4595,38.1617],[-0.4595,38.1617]]],[[[-0.4592,38.1617],[-0.4592,38.1617],[-0.4591,38.1617],[-0.4592,38.1617]]],[[[-0.4592,38.1617],[-0.4592,38.1617],[-0.4592,38.1617],[-0.4592,38.1617]]],[[[-0.4593,38.1617],[-0.4593,38.1617],[-0.4593,38.1617],[-0.4593,38.1617]]],[[[-0.4584,38.1617],[-0.4584,38.1617],[-0.4584,38.1617],[-0.4584,38.1617]]],[[[-0.4592,38.1618],[-0.4591,38.1618],[-0.4592,38.1618],[-0.4592,38.1618]]],[[[-0.4711,38.1618],[-0.4711,38.1617],[-0.4712,38.1618],[-0.4711,38.1618]]],[[[-0.4585,38.1618],[-0.4584,38.1618],[-0.4585,38.1618],[-0.4585,38.1618]]],[[[-0.4749,38.1618],[-0.4751,38.1619],[-0.4749,38.1618],[-0.4749,38.1618]]],[[[-0.4707,38.1618],[-0.4707,38.1618],[-0.4706,38.1618],[-0.4707,38.1618]]],[[[-0.4593,38.1618],[-0.4593,38.1618],[-0.4593,38.1618],[-0.4593,38.1618]]],[[[-0.4583,38.1618],[-0.4582,38.1619],[-0.4582,38.1618],[-0.4583,38.1618]]],[[[-0.4745,38.1619],[-0.4745,38.1618],[-0.4746,38.1619],[-0.4745,38.1619]]],[[[-0.4581,38.1619],[-0.4581,38.1619],[-0.4581,38.1619],[-0.4581,38.1619]]],[[[-0.4714,38.1619],[-0.4712,38.1619],[-0.4712,38.1618],[-0.4714,38.1619]]],[[[-0.4585,38.1619],[-0.4584,38.1619],[-0.4585,38.1619],[-0.4585,38.1619]]],[[[-0.4582,38.1619],[-0.4582,38.1619],[-0.4582,38.1619],[-0.4582,38.1619]]],[[[-0.4578,38.1619],[-0.4578,38.1619],[-0.4578,38.1619],[-0.4578,38.1619]]],[[[-0.4751,38.1619],[-0.4751,38.162],[-0.475,38.1619],[-0.4751,38.1619]]],[[[-0.4581,38.162],[-0.4581,38.1619],[-0.4581,38.1619],[-0.4581,38.162]]],[[[-0.4577,38.162],[-0.4577,38.162],[-0.4577,38.162],[-0.4577,38.162]]],[[[-0.4578,38.1621],[-0.4578,38.1621],[-0.4578,38.1621],[-0.4578,38.1621]]],[[[-0.4703,38.1622],[-0.4703,38.1621],[-0.4703,38.1621],[-0.4703,38.1622]]],[[[-0.4703,38.1622],[-0.4704,38.1622],[-0.4703,38.1622],[-0.4703,38.1622]]],[[[-0.4717,38.1623],[-0.4718,38.1622],[-0.4718,38.1623],[-0.4717,38.1623]]],[[[-0.476,38.1623],[-0.476,38.1623],[-0.476,38.1623],[-0.476,38.1623]]],[[[-0.4719,38.1624],[-0.472,38.1624],[-0.472,38.1624],[-0.4719,38.1624]]],[[[-0.4646,38.1624],[-0.4646,38.1624],[-0.4646,38.1624],[-0.4646,38.1624]]],[[[-0.4645,38.1624],[-0.4644,38.1625],[-0.4644,38.1625],[-0.4645,38.1624]]],[[[-0.4721,38.1626],[-0.472,38.1625],[-0.4722,38.1626],[-0.4721,38.1626]]],[[[-0.4639,38.1627],[-0.4645,38.1626],[-0.4647,38.1628],[-0.4639,38.1627]]],[[[-0.4776,38.1661],[-0.4765,38.1658],[-0.4738,38.1659],[-0.472,38.1665],[-0.4648,38.1629],[-0.4762,38.1628],[-0.4783,38.1655],[-0.4851,38.1668],[-0.478,38.1664],[-0.4787,38.1677],[-0.4776,38.1661]]],[[[-0.4755,38.1663],[-0.4755,38.1663],[-0.4755,38.1663],[-0.4755,38.1663]]],[[[-0.472,38.1666],[-0.4722,38.1666],[-0.4722,38.1667],[-0.472,38.1666]]],[[[-0.4719,38.1667],[-0.4719,38.1667],[-0.4719,38.1667],[-0.4719,38.1667]]],[[[-0.4711,38.1667],[-0.4713,38.1666],[-0.4713,38.1666],[-0.4711,38.1667]]],[[[-0.4717,38.1667],[-0.4718,38.1666],[-0.4718,38.1667],[-0.4717,38.1667]]],[[[-0.4716,38.1668],[-0.4716,38.1668],[-0.4716,38.1668],[-0.4716,38.1668]]],[[[-0.4565,38.1607],[-0.4564,38.1608],[-0.4564,38.1607],[-0.4565,38.1607]]],[[[-0.4554,38.1609],[-0.4554,38.1609],[-0.4554,38.1609],[-0.4554,38.1609]]],[[[-0.4566,38.1609],[-0.4565,38.1609],[-0.4565,38.1609],[-0.4566,38.1609]]],[[[-0.4553,38.161],[-0.4553,38.161],[-0.4553,38.161],[-0.4553,38.161]]],[[[-0.4555,38.161],[-0.4554,38.161],[-0.4554,38.1609],[-0.4555,38.161]]],[[[-0.4566,38.161],[-0.4566,38.161],[-0.4566,38.161],[-0.4566,38.161]]],[[[-0.4555,38.1611],[-0.4555,38.1611],[-0.4555,38.1611],[-0.4555,38.1611]]],[[[-0.4556,38.1611],[-0.4556,38.1611],[-0.4556,38.1611],[-0.4556,38.1611]]],[[[-0.4565,38.1611],[-0.4566,38.1611],[-0.4565,38.1611],[-0.4565,38.1611]]],[[[-0.4566,38.1612],[-0.4566,38.1611],[-0.4566,38.1612],[-0.4566,38.1612]]],[[[-0.4565,38.1612],[-0.4565,38.1611],[-0.4565,38.1612],[-0.4565,38.1612]]],[[[-0.4572,38.1612],[-0.4571,38.1612],[-0.4572,38.1612],[-0.4572,38.1612]]],[[[-0.4556,38.1612],[-0.4555,38.1613],[-0.4555,38.1612],[-0.4556,38.1612]]],[[[-0.4558,38.1613],[-0.4557,38.1612],[-0.4558,38.1612],[-0.4558,38.1613]]],[[[-0.4554,38.1612],[-0.4555,38.1613],[-0.4555,38.1613],[-0.4554,38.1612]]],[[[-0.4554,38.1612],[-0.4553,38.1613],[-0.4552,38.1612],[-0.4554,38.1612]]],[[[-0.4559,38.1613],[-0.4559,38.1613],[-0.4558,38.1612],[-0.4559,38.1613]]],[[[-0.4567,38.1613],[-0.4561,38.1613],[-0.4562,38.1612],[-0.4567,38.1613]]],[[[-0.4559,38.1614],[-0.4559,38.1613],[-0.4559,38.1614],[-0.4559,38.1614]]],[[[-0.4561,38.1614],[-0.4561,38.1614],[-0.4561,38.1613],[-0.4561,38.1614]]],[[[-0.4572,38.1614],[-0.4573,38.1614],[-0.4572,38.1614],[-0.4572,38.1614]]],[[[-0.4556,38.1614],[-0.4555,38.1614],[-0.4555,38.1614],[-0.4556,38.1614]]],[[[-0.4563,38.1614],[-0.4564,38.1614],[-0.4564,38.1614],[-0.4563,38.1614]]],[[[-0.456,38.1615],[-0.456,38.1614],[-0.456,38.1614],[-0.456,38.1615]]],[[[-0.4561,38.1614],[-0.4561,38.1614],[-0.4561,38.1614],[-0.4561,38.1614]]],[[[-0.4566,38.1615],[-0.4566,38.1615],[-0.4566,38.1615],[-0.4566,38.1615]]],[[[-0.456,38.1615],[-0.4561,38.1615],[-0.456,38.1615],[-0.456,38.1615]]],[[[-0.4567,38.1615],[-0.4567,38.1615],[-0.4567,38.1615],[-0.4567,38.1615]]],[[[-0.4566,38.1615],[-0.4567,38.1616],[-0.4566,38.1616],[-0.4566,38.1615]]],[[[-0.4573,38.1615],[-0.4572,38.1616],[-0.4572,38.1615],[-0.4573,38.1615]]],[[[-0.4571,38.1616],[-0.4571,38.1616],[-0.4571,38.1616],[-0.4571,38.1616]]],[[[-0.4569,38.1617],[-0.4568,38.1616],[-0.4569,38.1617],[-0.4569,38.1617]]],[[[-0.4573,38.1617],[-0.4573,38.1617],[-0.4573,38.1616],[-0.4573,38.1617]]],[[[-0.457,38.1617],[-0.4572,38.1616],[-0.4573,38.1618],[-0.457,38.1617]]],[[[-0.4575,38.1617],[-0.4575,38.1617],[-0.4575,38.1617],[-0.4575,38.1617]]],[[[-0.4577,38.1617],[-0.4576,38.1617],[-0.4576,38.1617],[-0.4577,38.1617]]],[[[-0.4573,38.1618],[-0.4573,38.1618],[-0.4572,38.1618],[-0.4573,38.1618]]],[[[-0.4575,38.1619],[-0.4573,38.1618],[-0.4576,38.1618],[-0.4575,38.1619]]],[[[-0.4576,38.1619],[-0.4576,38.1619],[-0.4576,38.1619],[-0.4576,38.1619]]],[[[-0.4571,38.1619],[-0.457,38.1619],[-0.4571,38.1619],[-0.4571,38.1619]]],[[[-0.4576,38.1619],[-0.4577,38.1619],[-0.4576,38.162],[-0.4576,38.1619]]],[[[-0.4571,38.1619],[-0.4571,38.1619],[-0.4571,38.1619],[-0.4571,38.1619]]],[[[-0.4573,38.1619],[-0.4573,38.162],[-0.4573,38.1619],[-0.4573,38.1619]]],[[[-0.4574,38.162],[-0.4574,38.1619],[-0.4574,38.162],[-0.4574,38.162]]],[[[-0.4576,38.1619],[-0.4575,38.162],[-0.4575,38.1619],[-0.4576,38.1619]]],[[[-0.4575,38.1621],[-0.4575,38.162],[-0.4575,38.1621],[-0.4575,38.1621]]],[[[-0.4576,38.162],[-0.4576,38.1621],[-0.4575,38.1621],[-0.4576,38.162]]],[[[-0.4576,38.1622],[-0.4576,38.1622],[-0.4576,38.1621],[-0.4576,38.1622]]],[[[-0.4553,38.161],[-0.4553,38.161],[-0.4552,38.161],[-0.4553,38.161]]],[[[-0.4549,38.1611],[-0.4548,38.1611],[-0.4548,38.1611],[-0.4549,38.1611]]],[[[-0.4548,38.1611],[-0.4548,38.1611],[-0.4548,38.1611],[-0.4548,38.1611]]],[[[-0.4548,38.1611],[-0.4548,38.1611],[-0.4548,38.1612],[-0.4548,38.1611]]],[[[-0.4553,38.1611],[-0.4553,38.1612],[-0.4553,38.1611],[-0.4553,38.1611]]],[[[-0.4549,38.1612],[-0.4549,38.1612],[-0.4549,38.1612],[-0.4549,38.1612]]],[[[-0.4549,38.1612],[-0.4549,38.1613],[-0.4549,38.1612],[-0.4549,38.1612]]],[[[-0.4544,38.1613],[-0.4544,38.1613],[-0.4544,38.1613],[-0.4544,38.1613]]],[[[-0.4543,38.1613],[-0.4543,38.1613],[-0.4543,38.1613],[-0.4543,38.1613]]],[[[-0.4544,38.1613],[-0.4543,38.1615],[-0.4543,38.1614],[-0.4544,38.1613]]],[[[-0.4551,38.1615],[-0.4551,38.1614],[-0.4552,38.1614],[-0.4551,38.1615]]],[[[-0.455,38.1614],[-0.455,38.1614],[-0.455,38.1614],[-0.455,38.1614]]],[[[-0.4548,38.1615],[-0.4548,38.1614],[-0.4548,38.1615],[-0.4548,38.1615]]],[[[-0.4542,38.1615],[-0.4542,38.1614],[-0.4543,38.1615],[-0.4542,38.1615]]],[[[-0.4538,38.1615],[-0.4539,38.1615],[-0.4539,38.1615],[-0.4538,38.1615]]],[[[-0.4551,38.1615],[-0.4551,38.1615],[-0.4551,38.1615],[-0.4551,38.1615]]],[[[-0.4548,38.1615],[-0.4548,38.1615],[-0.4548,38.1615],[-0.4548,38.1615]]],[[[-0.455,38.1615],[-0.4549,38.1615],[-0.4549,38.1615],[-0.455,38.1615]]],[[[-0.4547,38.1615],[-0.4547,38.1615],[-0.4547,38.1615],[-0.4547,38.1615]]],[[[-0.4544,38.1615],[-0.4543,38.1615],[-0.4544,38.1615],[-0.4544,38.1615]]],[[[-0.4541,38.1615],[-0.4541,38.1615],[-0.4541,38.1615],[-0.4541,38.1615]]],[[[-0.4551,38.1615],[-0.4551,38.1615],[-0.4551,38.1615],[-0.4551,38.1615]]],[[[-0.4552,38.1615],[-0.4552,38.1615],[-0.4552,38.1615],[-0.4552,38.1615]]],[[[-0.4542,38.1615],[-0.4544,38.1616],[-0.4541,38.1615],[-0.4542,38.1615]]],[[[-0.4552,38.1616],[-0.4551,38.1616],[-0.4552,38.1616],[-0.4552,38.1616]]],[[[-0.4551,38.1616],[-0.455,38.1616],[-0.4551,38.1616],[-0.4551,38.1616]]],[[[-0.4544,38.1616],[-0.4544,38.1616],[-0.4544,38.1616],[-0.4544,38.1616]]],[[[-0.4549,38.1617],[-0.4548,38.1616],[-0.4549,38.1616],[-0.4549,38.1617]]],[[[-0.4539,38.1617],[-0.4539,38.1616],[-0.4539,38.1617],[-0.4539,38.1617]]],[[[-0.4546,38.1617],[-0.4547,38.1616],[-0.4546,38.1617],[-0.4546,38.1617]]],[[[-0.1328,38.5024],[-0.1328,38.5024],[-0.1328,38.5024],[-0.1328,38.5024]]],[[[-0.3299,39.4293],[-0.33,39.4306],[-0.3299,39.4293],[-0.3299,39.4293]]],[[[-0.2136,39.6471],[-0.2138,39.6469],[-0.2136,39.6471],[-0.2136,39.6471]]],[[[-0.1951,39.647],[-0.2001,39.6494],[-0.1949,39.6471],[-0.1951,39.647]]],[[[-0.2058,39.6521],[-0.2007,39.6497],[-0.2058,39.6521],[-0.2058,39.6521]]],[[[-0.1291,38.5014],[-0.1323,38.5016],[-0.133,38.5022],[-0.1311,38.504],[-0.1291,38.5014]]],[[[-0.1289,38.5028],[-0.129,38.5028],[-0.1289,38.5028],[-0.1289,38.5028]]],[[[-0.1296,38.5035],[-0.1296,38.5035],[-0.1295,38.5035],[-0.1296,38.5035]]],[[[-0.0951,38.5265],[-0.0951,38.5265],[-0.095,38.5265],[-0.0951,38.5265]]],[[[-0.0841,38.5339],[-0.0839,38.5339],[-0.0841,38.5339],[-0.0841,38.5339]]],[[[-0.0726,38.5363],[-0.073,38.5371],[-0.0716,38.5371],[-0.0726,38.5363]]],[[[-0.062,38.5509],[-0.0626,38.5511],[-0.0619,38.5511],[-0.062,38.5509]]],[[[-0.0568,38.5548],[-0.0568,38.5548],[-0.0568,38.5548],[-0.0568,38.5548]]],[[[-0.0567,38.5549],[-0.0566,38.5549],[-0.0567,38.5549],[-0.0567,38.5549]]],[[[-0.0555,38.5683],[-0.0553,38.5681],[-0.0555,38.5682],[-0.0555,38.5683]]],[[[-0.0193,38.6166],[-0.0199,38.6171],[-0.0191,38.6173],[-0.0193,38.6166]]],[[[-0.0141,38.6239],[-0.0139,38.6241],[-0.0139,38.6241],[-0.0141,38.6239]]],[[[-0.0111,38.6276],[-0.0111,38.6276],[-0.0111,38.6276],[-0.0111,38.6276]]],[[[-0.0108,38.6277],[-0.0107,38.6276],[-0.0108,38.6277],[-0.0108,38.6277]]],[[[-0.0107,38.6277],[-0.0107,38.6277],[-0.0107,38.6277],[-0.0107,38.6277]]],[[[0.0094,38.6302],[0.0095,38.6301],[0.0093,38.6303],[0.0094,38.6302]]],[[[0.0088,38.6302],[0.0088,38.6302],[0.0087,38.6302],[0.0088,38.6302]]],[[[0.0089,38.6303],[0.0089,38.6303],[0.009,38.6303],[0.0089,38.6303]]],[[[0.0091,38.6303],[0.0091,38.6303],[0.0091,38.6303],[0.0091,38.6303]]],[[[0.0092,38.6305],[0.0092,38.6305],[0.0092,38.6305],[0.0092,38.6305]]],[[[0.0094,38.6316],[0.0095,38.6316],[0.0095,38.6316],[0.0094,38.6316]]],[[[0.0096,38.6319],[0.0096,38.6319],[0.0096,38.6319],[0.0096,38.6319]]],[[[0.0727,38.6325],[0.0728,38.6325],[0.0727,38.6324],[0.0727,38.6325]]],[[[0.076,38.6327],[0.0759,38.6327],[0.076,38.6327],[0.076,38.6327]]],[[[0.0724,38.6328],[0.0724,38.6328],[0.0724,38.6328],[0.0724,38.6328]]],[[[0.0722,38.6328],[0.0722,38.6328],[0.0721,38.6328],[0.0722,38.6328]]],[[[0.0713,38.6346],[0.0712,38.6347],[0.0713,38.6347],[0.0713,38.6346]]],[[[0.0772,38.636],[0.0772,38.636],[0.0772,38.636],[0.0772,38.636]]],[[[0.0446,38.639],[0.0447,38.6388],[0.0445,38.6389],[0.0446,38.639]]],[[[0.0759,38.6396],[0.0759,38.6396],[0.0759,38.6396],[0.0759,38.6396]]],[[[0.1197,38.6795],[0.1201,38.6797],[0.1197,38.6794],[0.1197,38.6795]]],[[[0.1559,38.6914],[0.156,38.6917],[0.156,38.6914],[0.1559,38.6914]]],[[[0.1558,38.6919],[0.1559,38.6918],[0.1558,38.6918],[0.1558,38.6919]]],[[[0.1561,38.6922],[0.1561,38.6923],[0.1562,38.6923],[0.1561,38.6922]]],[[[0.1563,38.694],[0.1566,38.6941],[0.1565,38.694],[0.1563,38.694]]],[[[0.1563,38.6972],[0.1565,38.6971],[0.1563,38.6971],[0.1563,38.6972]]],[[[0.1618,38.7012],[0.1616,38.701],[0.1616,38.7012],[0.1618,38.7012]]],[[[0.1648,38.7042],[0.1648,38.7043],[0.1649,38.7043],[0.1648,38.7042]]],[[[0.1656,38.7057],[0.1655,38.7057],[0.1656,38.7057],[0.1656,38.7057]]],[[[0.1654,38.7059],[0.1654,38.7061],[0.1656,38.706],[0.1654,38.7059]]],[[[0.1728,38.7117],[0.1727,38.7116],[0.1727,38.7116],[0.1728,38.7117]]],[[[0.1738,38.712],[0.1736,38.7119],[0.1736,38.712],[0.1738,38.712]]],[[[0.1886,38.7226],[0.1888,38.7226],[0.1886,38.7225],[0.1886,38.7226]]],[[[0.1599,38.8221],[0.16,38.822],[0.16,38.822],[0.1599,38.8221]]],[[[0.0656,40.0445],[0.0643,40.0431],[0.0642,40.0431],[0.0656,40.0445]]],[[[0.1483,40.0862],[0.1486,40.0867],[0.1488,40.0864],[0.1483,40.0862]]],[[[0.2158,38.7278],[0.2187,38.7262],[0.2152,38.7274],[0.2158,38.7278]]],[[[0.2151,38.7273],[0.2151,38.7272],[0.215,38.7272],[0.2151,38.7273]]],[[[0.2151,38.7279],[0.2152,38.7278],[0.2151,38.7279],[0.2151,38.7279]]],[[[0.2173,38.7292],[0.2173,38.7293],[0.2174,38.7293],[0.2173,38.7292]]],[[[0.2194,38.7303],[0.2194,38.7301],[0.2192,38.7302],[0.2194,38.7303]]],[[[0.2133,38.7319],[0.2133,38.7321],[0.2134,38.732],[0.2133,38.7319]]],[[[0.2309,38.7329],[0.2315,38.7327],[0.2315,38.7327],[0.2309,38.7329]]],[[[0.2317,38.7366],[0.2318,38.7367],[0.2319,38.7365],[0.2317,38.7366]]],[[[0.2338,38.7426],[0.2341,38.7426],[0.2339,38.7425],[0.2338,38.7426]]],[[[0.2314,38.7523],[0.2315,38.7521],[0.2313,38.7521],[0.2314,38.7523]]],[[[0.23,38.7535],[0.228,38.7539],[0.229,38.7569],[0.2316,38.7563],[0.23,38.7535]]],[[[0.2236,38.7611],[0.2238,38.7611],[0.2237,38.761],[0.2236,38.7611]]],[[[0.2241,38.7611],[0.224,38.7614],[0.2242,38.7612],[0.2241,38.7611]]],[[[0.2247,38.7614],[0.2249,38.7615],[0.2248,38.7612],[0.2247,38.7614]]],[[[0.2246,38.7612],[0.2242,38.7613],[0.2241,38.7616],[0.2246,38.7612]]],[[[0.2236,38.7648],[0.2238,38.7648],[0.2238,38.7646],[0.2236,38.7648]]],[[[0.1961,38.7998],[0.1962,38.7998],[0.1961,38.7998],[0.1961,38.7998]]],[[[0.1972,38.8],[0.1973,38.8],[0.1972,38.8],[0.1972,38.8]]],[[[0.1975,38.8],[0.1977,38.8002],[0.1978,38.8],[0.1975,38.8]]],[[[0.192,38.8063],[0.1922,38.8064],[0.1922,38.8063],[0.192,38.8063]]],[[[0.6734,39.8506],[0.6735,39.8505],[0.6734,39.8505],[0.6734,39.8506]]],[[[0.6742,39.8506],[0.6742,39.8508],[0.6743,39.8508],[0.6742,39.8506]]],[[[0.6732,39.8507],[0.6734,39.8509],[0.6734,39.8508],[0.6732,39.8507]]],[[[0.6739,39.851],[0.6739,39.8509],[0.6739,39.8509],[0.6739,39.851]]],[[[0.6731,39.8511],[0.6729,39.851],[0.6729,39.851],[0.6731,39.8511]]],[[[0.6721,39.8514],[0.6719,39.8513],[0.6719,39.8514],[0.6721,39.8514]]],[[[0.6722,39.8517],[0.6722,39.8515],[0.6721,39.8516],[0.6722,39.8517]]],[[[0.6713,39.852],[0.6717,39.8516],[0.6714,39.8515],[0.6713,39.852]]],[[[0.672,39.8743],[0.6721,39.8746],[0.6724,39.8746],[0.672,39.8743]]],[[[0.6708,39.874],[0.6693,39.8751],[0.6713,39.8761],[0.6708,39.8753],[0.6708,39.874]]],[[[0.6718,39.8748],[0.671,39.8752],[0.6719,39.8754],[0.6718,39.8748]]],[[[0.6661,39.8893],[0.667,39.8897],[0.6668,39.8892],[0.6661,39.8893]]],[[[0.6695,39.8902],[0.6695,39.8901],[0.6695,39.8901],[0.6695,39.8902]]],[[[0.6693,39.8903],[0.6694,39.8902],[0.6693,39.8902],[0.6693,39.8903]]],[[[0.6688,39.8908],[0.6673,39.8912],[0.6673,39.8924],[0.6682,39.8923],[0.6688,39.8908]]],[[[0.6704,39.8915],[0.6704,39.8918],[0.6705,39.8919],[0.6704,39.8915]]],[[[0.6709,39.892],[0.671,39.8921],[0.671,39.892],[0.6709,39.892]]],[[[0.6705,39.892],[0.6706,39.8921],[0.6706,39.892],[0.6705,39.892]]],[[[0.6889,39.8947],[0.6881,39.8951],[0.6888,39.8953],[0.6889,39.8947]]],[[[0.689,39.8953],[0.69,39.8963],[0.6901,39.8966],[0.6903,39.8955],[0.689,39.8953]]],[[[0.6898,39.8961],[0.6898,39.8961],[0.6898,39.8961],[0.6898,39.8961]]],[[[0.6898,39.8962],[0.6898,39.8962],[0.6898,39.8962],[0.6898,39.8962]]],[[[0.6834,39.8963],[0.6876,39.8939],[0.6847,39.8936],[0.6828,39.8967],[0.6848,39.8998],[0.6879,39.9004],[0.6834,39.8963]]],[[[0.2738,40.2283],[0.2739,40.2284],[0.2739,40.2283],[0.2738,40.2283]]],[[[0.3032,40.2594],[0.3033,40.2594],[0.3033,40.2594],[0.3032,40.2594]]],[[[0.4706,40.462],[0.4705,40.462],[0.4706,40.462],[0.4706,40.462]]]]}}]}